API VERSION: 1.2
API SOURCE: NASA/JPL Horizons API



*******************************************************************************
Ephemeris / API_USER Fri Apr  3 11:25:47 2026 Pasadena, USA      / Horizons
*******************************************************************************
Target body name: Uranus (799)                    {source: ura184_merged}
Center body name: Earth (399)                     {source: DE441}
Center-site name: BODY CENTER
*******************************************************************************
Start time      : A.D. 2068-Dec-11 21:42:59.9999 TDB
Stop  time      : A.D. 2068-Dec-13 21:42:59.9999 TDB
Step-size       : 60 minutes
*******************************************************************************
Center geodetic : 0.0, 0.0, 0.0                   {E-lon(deg),Lat(deg),Alt(km)}
Center cylindric: 0.0, 0.0, 0.0                   {E-lon(deg),Dxy(km),Dz(km)}
Center radii    : 6378.137, 6378.137, 6356.752 km {Equator_a, b, pole_c}
Output units    : AU-D
Calendar mode   : Mixed Julian/Gregorian
Output type     : GEOMETRIC cartesian states
Output format   : 3 (position, velocity, LT, range, range-rate)
EOP file        : eop.260402.p260629
EOP coverage    : DATA-BASED 1962-JAN-20 TO 2026-APR-02. PREDICTS-> 2026-JUN-28
Reference frame : Ecliptic of J2000.0
*******************************************************************************
            JDTDB,            Calendar Date (TDB),                      X,                      Y,                      Z,                     VX,                     VY,                     VZ,                     LT,                     RG,                     RR,
**************************************************************************************************************************************************************************************************************************************************************************
$$SOE
2476727.404861110, A.D. 2068-Dec-11 21:42:59.9999, -5.405927455387620E+00, -1.927488166100107E+01,  5.106490270601953E-05,  2.095864673500379E-02, -4.268334767303591E-03, -5.338173739872946E-05,  1.156179021634805E-01,  2.001861920066209E+01, -1.550020942909029E-03,
2476727.446527777, A.D. 2068-Dec-11 22:42:59.9999, -5.405054130420888E+00, -1.927505924812923E+01,  4.884087707353770E-05,  2.096095027869387E-02, -4.255847029298468E-03, -5.337142198902861E-05,  1.156175277485862E-01,  2.001855437273275E+01, -1.561719655940254E-03,
2476727.488194443, A.D. 2068-Dec-11 23:42:59.9999, -5.404180709646526E+00, -1.927523631489075E+01,  4.661728998767490E-05,  2.096324550912205E-02, -4.243357172213804E-03, -5.336069044613202E-05,  1.156171505184435E-01,  2.001848905735825E+01, -1.573418309761349E-03,
2476727.529861110, A.D. 2068-Dec-12 00:42:59.9999, -5.403307193409935E+00, -1.927541286119773E+01,  4.439415833320114E-05,  2.096553247345479E-02, -4.230865214084677E-03, -5.334956596207409E-05,  1.156167704730669E-01,  2.001842325454114E+01, -1.585116901109423E-03,
2476727.571527777, A.D. 2068-Dec-12 01:42:59.9999, -5.402433582054570E+00, -1.927558888696300E+01,  4.217149786493197E-05,  2.096781121775617E-02, -4.218371173539685E-03, -5.333807895550112E-05,  1.156163876124722E-01,  2.001835696428408E+01, -1.596815425841304E-03,
2476727.613194443, A.D. 2068-Dec-12 02:42:59.9999, -5.401559875922016E+00, -1.927576439210020E+01,  3.994932293360705E-05,  2.097008178551829E-02, -4.205875069470680E-03, -5.332626704711195E-05,  1.156160019366757E-01,  2.001829018658998E+01, -1.608513878855264E-03,
2476727.654861110, A.D. 2068-Dec-12 03:42:59.9999, -5.400686075352121E+00, -1.927593937652373E+01,  3.772764617272224E-05,  2.097234421631452E-02, -4.193376920710140E-03, -5.331417483779006E-05,  1.156156134456956E-01,  2.001822292146193E+01, -1.620212254039015E-03,
2476727.696527777, A.D. 2068-Dec-12 04:42:59.9999, -5.399812180683188E+00, -1.927611384014878E+01,  3.550647821643935E-05,  2.097459854461653E-02, -4.180876745727001E-03, -5.330185350324183E-05,  1.156152221395513E-01,  2.001815516890332E+01, -1.631910544244551E-03,
2476727.738194443, A.D. 2068-Dec-12 05:42:59.9999, -5.398938192252207E+00, -1.927628778289131E+01,  3.328582743662086E-05,  2.097684479879882E-02, -4.168374562348208E-03, -5.328936022330816E-05,  1.156148280182644E-01,  2.001808692891787E+01, -1.643608741289117E-03,
2476727.779861110, A.D. 2068-Dec-12 06:42:59.9999, -5.398064110395128E+00, -1.927646120466799E+01,  3.106569972209822E-05,  2.097908300033912E-02, -4.155870387510311E-03, -5.327675746716637E-05,  1.156144310818583E-01,  2.001801820150964E+01, -1.655306835980444E-03,
2476727.821527777, A.D. 2068-Dec-12 07:42:59.9999, -5.397189935447156E+00, -1.927663410539617E+01,  2.884609824279996E-05,  2.098131316321245E-02, -4.143364237042816E-03, -5.326411215753703E-05,  1.156140313303589E-01,  2.001794898668309E+01, -1.667004818163839E-03,
2476727.863194443, A.D. 2068-Dec-12 08:42:59.9999, -5.396315667743086E+00, -1.927680648499384E+01,  2.662702331986260E-05,  2.098353529346790E-02, -4.130856125483237E-03, -5.325149473785493E-05,  1.156136287637944E-01,  2.001787928444317E+01, -1.678702676788201E-03,
2476727.904861110, A.D. 2068-Dec-12 09:42:59.9999, -5.395441307617625E+00, -1.927697834337957E+01,  2.440847227980448E-05,  2.098574938897207E-02, -4.118346065922421E-03, -5.323897816643918E-05,  1.156132233821962E-01,  2.001780909479524E+01, -1.690400399987956E-03,
2476727.946527777, A.D. 2068-Dec-12 10:42:59.9999, -5.394566855405740E+00, -1.927714968047244E+01,  2.219043937244860E-05,  2.098795543930086E-02, -4.105834069877965E-03, -5.322663686110479E-05,  1.156128151855981E-01,  2.001773841774523E+01, -1.702097975177979E-03,
2476727.988194443, A.D. 2068-Dec-12 11:42:59.9999, -5.393692311443011E+00, -1.927732049619197E+01,  1.997291573426689E-05,  2.099015342576069E-02, -4.093320147193250E-03, -5.321454561655927E-05,  1.156124041740376E-01,  2.001766725329956E+01, -1.713795389158818E-03,
2476728.029861110, A.D. 2068-Dec-12 12:42:59.9999, -5.392817676065961E+00, -1.927749079045806E+01,  1.775588940192687E-05,  2.099234332152189E-02, -4.080804305959669E-03, -5.320277851555441E-05,  1.156119903475550E-01,  2.001759560146523E+01, -1.725492628229723E-03,
2476728.071527777, A.D. 2068-Dec-12 13:42:59.9999, -5.391942949612400E+00, -1.927766056319091E+01,  1.553934535054121E-05,  2.099452509184941E-02, -4.068286552459984E-03, -5.319140785315435E-05,  1.156115737061940E-01,  2.001752346224983E+01, -1.737189678307569E-03,
2476728.113194443, A.D. 2068-Dec-12 14:42:59.9999, -5.391068132421744E+00, -1.927782981431093E+01,  1.332326560921307E-05,  2.099669869441943E-02, -4.055766891131311E-03, -5.318050309178366E-05,  1.156111542500019E-01,  2.001745083566152E+01, -1.748886525049908E-03,
2476728.154861110, A.D. 2068-Dec-12 15:42:59.9999, -5.390193224835325E+00, -1.927799854373870E+01,  1.110762937578473E-05,  2.099886407971376E-02, -4.043245324546836E-03, -5.317012986308376E-05,  1.156107319790294E-01,  2.001737772170910E+01, -1.760583153980863E-03,
2476728.196527777, A.D. 2068-Dec-12 16:42:59.9999, -5.389318227196675E+00, -1.927816675139486E+01,  8.892413224819263E-06,  2.100102119148743E-02, -4.030721853416051E-03, -5.316034903094989E-05,  1.156103068933306E-01,  2.001730412040192E+01, -1.772279550618744E-03,
2476728.238194443, A.D. 2068-Dec-12 17:42:59.9999, -5.388443139851808E+00, -1.927833443720002E+01,  6.677591292473190E-06,  2.100316996730753E-02, -4.018196476603855E-03, -5.315121582866278E-05,  1.156098789929631E-01,  2.001723003174997E+01, -1.783975700604571E-03,
2476728.279861110, A.D. 2068-Dec-12 18:42:59.9999, -5.387567963149452E+00, -1.927850160107474E+01,  4.463135560977272E-06,  2.100531033916322E-02, -4.005669191169364E-03, -5.314277908162167E-05,  1.156094482779880E-01,  2.001715545576382E+01, -1.795671589830558E-03,
2476728.321527777, A.D. 2068-Dec-12 19:42:59.9999, -5.386692697441277E+00, -1.927866824293938E+01,  2.249016112836387E-06,  2.100744223414798E-02, -3.993139992425522E-03, -5.313508052594131E-05,  1.156090147484697E-01,  2.001708039245463E+01, -1.807367204567865E-03,
2476728.363194443, A.D. 2068-Dec-12 20:42:59.9999, -5.385817343082076E+00, -1.927883436271411E+01,  3.520145355981094E-08,  2.100956557521490E-02, -3.980608874020750E-03, -5.312815423202570E-05,  1.156085784044759E-01,  2.001700484183410E+01, -1.819062531592538E-03,
2476728.404861110, A.D. 2068-Dec-12 21:42:59.9999, -5.384941900429928E+00, -1.927899996031878E+01, -2.178341162421042E-06,  2.101168028200483E-02, -3.968075828043707E-03, -5.312202614110698E-05,  1.156081392460774E-01,  2.001692880391451E+01, -1.830757558308555E-03,
2476728.446527777, A.D. 2068-Dec-12 22:42:59.9999, -5.384066369846312E+00, -1.927916503567288E+01, -4.391645390694454E-06,  2.101378627174480E-02, -3.955540845151901E-03, -5.311671372168614E-05,  1.156076972733478E-01,  2.001685227870858E+01, -1.842452272866571E-03,
2476728.488194443, A.D. 2068-Dec-12 23:42:59.9999, -5.383190751696190E+00, -1.927932958869549E+01, -6.604745429513693E-06,  2.101588346021133E-02, -3.943003914724376E-03, -5.311222575165648E-05,  1.156072524863636E-01,  2.001677526622959E+01, -1.854146664276603E-03,
2476728.529861110, A.D. 2068-Dec-13 00:42:59.9999, -5.382315046348044E+00, -1.927949361930523E+01, -8.817675658020354E-06,  2.101797176274919E-02, -3.930465025037906E-03, -5.310856223068916E-05,  1.156068048852038E-01,  2.001669776649118E+01, -1.865840722512715E-03,
2476728.571527777, A.D. 2068-Dec-13 01:42:59.9999, -5.381439254173877E+00, -1.927965712742019E+01, -1.103047027845203E-05,  2.102005109533260E-02, -3.917924163465420E-03, -5.310571442605144E-05,  1.156063544699497E-01,  2.001661977950746E+01, -1.877534438607362E-03,
2476728.613194443, A.D. 2068-Dec-13 02:42:59.9999, -5.380563375549159E+00, -1.927982011295794E+01, -1.324316295436564E-05,  2.102212137565083E-02, -3.905381316694261E-03, -5.310366505346041E-05,  1.156059012406846E-01,  2.001654130529283E+01, -1.889227804732877E-03,
